NORAD_CAT_ID,OBJECT_NAME,OBJECT_TYPE,EPOCH,MEAN_MOTION,ECCENTRICITY,INCLINATION,RA_OF_ASC_NODE,ARG_OF_PERICENTER,MEAN_ANOMALY,BSTAR,MEAN_MOTION_DOT,MEAN_MOTION_DDOT,TLE_LINE0,TLE_LINE1,TLE_LINE2,SEMIMAJOR_AXIS,PERIOD,APOGEE,PERIGEE,DECAYED
51957.0,STARLINK-3694,PAYLOAD,2022-08-20 08:00:01,15.08835392,0.0001501,53.2163,93.1747,57.401,199.8593,-0.0034875999999999,-0.0005536,0.0,0 STARLINK-3694,1 51957U 22025B   22232.33334491 -.00055360  00000-0 -34876-2 0  9990,2 51957  53.2163  93.1747 0001501  57.4010 199.8593 15.08835392 26459,6917.894,95.438,540.798,538.721,0.0
51957.0,STARLINK-3694,PAYLOAD,2022-08-20 14:00:01,15.08799504,0.0001543,53.2165,92.0518,64.1272,111.8166,0.0021089,0.00033397,0.0,0 STARLINK-3694,1 51957U 22025B   22232.58334491  .00033397  00000-0  21089-2 0  9993,2 51957  53.2165  92.0518 0001543  64.1272 111.8166 15.08799504  1307,6918.004,95.44,540.937,538.802,0.0
51957.0,STARLINK-3694,PAYLOAD,2022-08-20 22:00:00,15.08812422,0.0001698,53.2165,90.5573,57.0531,130.4525,0.00035977,5.438e-05,0.0,0 STARLINK-3694,1 51957U 22025B   22232.91667824  .00005438  00000-0  35977-3 0  9996,2 51957  53.2165  90.5573 0001698  57.0531 130.4525 15.08812422  1302,6917.965,95.439,541.004,538.655,0.0
51957.0,STARLINK-3694,PAYLOAD,2022-08-21 00:00:00,15.08798425,0.0001728,53.2167,90.1835,55.8309,224.5697,0.002636,0.00041866,0.0,0 STARLINK-3694,1 51957U 22025B   22233.00001157  .00041866  00000-0  26360-2 0  9998,2 51957  53.2167  90.1835 0001728  55.8309 224.5697 15.08798425 26559,6918.007,95.44,541.068,538.677,0.0
51957.0,STARLINK-3694,PAYLOAD,2022-08-21 14:00:01,15.08820831,0.0001593,53.217,87.5631,65.0252,145.6134,0.0016432,0.00025947,0.0,0 STARLINK-3694,1 51957U 22025B   22233.58334491  .00025947  00000-0  16432-2 0  9992,2 51957  53.2170  87.5631 0001593  65.0252 145.6134 15.08820831  1309,6917.939,95.439,540.906,538.702,0.0
51957.0,STARLINK-3694,PAYLOAD,2022-08-21 16:00:00,15.08838778,0.0001606,53.2171,87.1894,64.0315,239.4967,-0.00028976,-4.896e-05,0.0,0 STARLINK-3694,1 51957U 22025B   22233.66667824 -.00004896  00000-0 -28976-3 0  9999,2 51957  53.2171  87.1894 0001606  64.0315 239.4967 15.08838778 26651,6917.884,95.438,540.86,538.638,0.0
51957.0,STARLINK-3694,PAYLOAD,2022-08-21 22:00:00,15.08826625,0.000174,53.217,86.0685,57.6864,164.5382,0.00059155,9.136e-05,0.0,0 STARLINK-3694,1 51957U 22025B   22233.91667824  .00009136  00000-0  59155-3 0  9990,2 51957  53.2170  86.0685 0001740  57.6864 164.5382 15.08826625  1304,6917.920999999999,95.438,540.99,538.5830000000002,0.0
51957.0,STARLINK-3694,PAYLOAD,2022-08-22 12:00:00,15.08824135,0.0001573,53.2171,83.4481,64.9652,87.5433,0.0025855,0.00041083,0.0,0 STARLINK-3694,1 51957U 22025B   22234.50001157  .00041083  00000-0  25855-2 0  9993,2 51957  53.2171  83.4481 0001573  64.9652  87.5433 15.08824135  1305,6917.929,95.439,540.882,538.706,0.0
51957.0,STARLINK-3694,PAYLOAD,2022-08-22 22:00:00,15.088385,0.000174,53.2171,81.5796,58.9107,198.0951,0.00075958,0.00011821,0.0,0 STARLINK-3694,1 51957U 22025B   22234.91667824  .00011821  00000-0  75958-3 0  9994,2 51957  53.2171  81.5796 0001740  58.9107 198.0951 15.08838500 26847,6917.885,95.438,540.9540000000002,538.5459999999998,0.0
51957.0,STARLINK-3694,PAYLOAD,2022-08-23 14:00:01,15.08866119,0.0001541999999999,53.217,78.5852,68.1637,212.045,-0.001592,-0.00025553,0.0,0 STARLINK-3694,1 51957U 22025B   22235.58334491 -.00025553  00000-0 -15920-2 0  9990,2 51957  53.2170  78.5852 0001542  68.1637 212.0450 15.08866119  1308,6917.801,95.436,540.732,538.599,0.0
51957.0,STARLINK-3694,PAYLOAD,2022-08-23 22:00:01,15.08822832,0.0001624,53.2168,77.0905,58.8879,233.0032,0.00055035,8.478e-05,0.0,0 STARLINK-3694,1 51957U 22025B   22235.91668981  .00008478  00000-0  55035-3 0  9998,2 51957  53.2168  77.0905 0001624  58.8879 233.0032 15.08822832  1306,6917.933000000001,95.439,540.9209999999998,538.674,0.0
51957.0,STARLINK-3694,PAYLOAD,2022-08-24 14:00:01,15.08839187,0.000149,53.2165,74.0962,68.9757,246.0148,0.00028123,4.191e-05,0.0,0 STARLINK-3694,1 51957U 22025B   22236.58334491  .00004191  00000-0  28123-3 0  9994,2 51957  53.2165  74.0962 0001490  68.9757 246.0148 15.08839187  1304,6917.8830000000025,95.438,540.779,538.717,0.0
51957.0,STARLINK-3694,PAYLOAD,2022-08-24 22:00:00,15.08824076,0.0001626999999999,53.2163,72.6016,60.7966,265.7938,0.0013833,0.00021786,0.0,0 STARLINK-3694,1 51957U 22025B   22236.91667824  .00021786  00000-0  13833-2 0  9990,2 51957  53.2163  72.6016 0001627  60.7966 265.7938 15.08824076  1306,6917.929,95.439,540.92,538.669,0.0
51957.0,STARLINK-3694,PAYLOAD,2022-08-25 06:00:02,15.088495300000002,0.0001523,53.2159,71.1037,64.2653,273.973,-0.001603,-0.00025716,0.0,0 STARLINK-3694,1 51957U 22025B   22237.25002315 -.00025716  00000-0 -16030-2 0  9997,2 51957  53.2159  71.1037 0001523  64.2653 273.9730 15.08849530 27193,6917.851,95.437,540.77,538.663,0.0
51957.0,STARLINK-3694,PAYLOAD,2022-08-25 14:00:01,15.08849561,0.0001525,53.216,69.6071,69.8978,279.8687,-0.00012861,-2.335e-05,0.0,0 STARLINK-3694,1 51957U 22025B   22237.58334491 -.00002335  00000-0 -12861-3 0  9997,2 51957  53.2160  69.6071 0001525  69.8978 279.8687 15.08849561  1303,6917.851,95.437,540.771,538.661,0.0
51957.0,STARLINK-3694,PAYLOAD,2022-08-25 22:00:00,15.08828932,0.0001649,53.2159,68.1123,61.7783,299.5986,0.0017942,0.00028374,0.0,0 STARLINK-3694,1 51957U 22025B   22237.91667824  .00028374  00000-0  17942-2 0  9996,2 51957  53.2159  68.1123 0001649  61.7783 299.5986 15.08828932  1305,6917.9140000000025,95.438,540.92,538.638,0.0
51957.0,STARLINK-3694,PAYLOAD,2022-08-26 14:00:01,15.08861591,0.0001564,53.2158,65.1176,69.2504,315.3848,-0.00043671,-7.236e-05,0.0,0 STARLINK-3694,1 51957U 22025B   22238.58335648 -.00007236  00000-0 -43671-3 0  9991,2 51957  53.2158  65.1176 0001564  69.2504 315.3848 15.08861591  1301,6917.814,95.436,540.761,538.597,0.0
51957.0,STARLINK-3694,PAYLOAD,2022-08-26 22:00:00,15.08816741,0.0001751,53.2166,63.6218,64.368,331.806,0.0031423,0.00050045,0.0,0 STARLINK-3694,1 51957U 22025B   22238.91667824  .00050045  00000-0  31423-2 0  9997,2 51957  53.2166  63.6218 0001751  64.3680 331.8060 15.08816741 27448,6917.951,95.439,541.028,538.605,0.0
51957.0,STARLINK-3694,PAYLOAD,2022-08-27 14:00:01,15.08856773,0.0001717,53.216,60.6281,69.3264,350.0181,-0.00073154,-0.00011917,0.0,0 STARLINK-3694,1 51957U 22025B   22239.58334491 -.00011917  00000-0 -73154-3 0  9997,2 51957  53.2160  60.6281 0001717  69.3264 350.0181 15.08856773  1307,6917.829000000002,95.436,540.882,538.506,0.0
51957.0,STARLINK-3694,PAYLOAD,2022-08-27 22:00:00,15.08828352,0.0001792,53.2162,59.1331,61.7598,9.1995,0.0024734,0.00039284,0.0,0 STARLINK-3694,1 51957U 22025B   22239.91667824  .00039284  00000-0  24734-2 0  9997,2 51957  53.2162  59.1331 0001792  61.7598   9.1995 15.08828352 27593,6917.916,95.438,541.021,538.5409999999998,0.0
51957.0,STARLINK-3694,PAYLOAD,2022-08-28 14:00:01,15.08849535,0.0001652,53.2167,56.1386,67.3283,26.8284,-0.00098791,-0.0001598,0.0,0 STARLINK-3694,1 51957U 22025B   22240.58334491 -.00015980  00000-0 -98791-3 0  9997,2 51957  53.2167  56.1386 0001652  67.3283  26.8284 15.08849535  1307,6917.851,95.437,540.859,538.573,0.0
51957.0,STARLINK-3694,PAYLOAD,2022-08-28 22:00:00,15.08817697,0.0001727,53.2168,54.6436,59.7288,46.0343,0.0031460999999999,0.00050108,0.0,0 STARLINK-3694,1 51957U 22025B   22240.91667824  .00050108  00000-0  31461-2 0  9992,2 51957  53.2168  54.6436 0001727  59.7288  46.0343 15.08817697  1304,6917.949000000001,95.439,541.008,538.619,0.0
51957.0,STARLINK-3694,PAYLOAD,2022-08-29 14:00:01,15.08842068,0.000155,53.2173,51.6493,65.9956,62.9525,-0.0018709,-0.00029942,0.0,0 STARLINK-3694,1 51957U 22025B   22241.58334491 -.00029942  00000-0 -18709-2 0  9991,2 51957  53.2173  51.6493 0001550  65.9956  62.9525 15.08842068  1304,6917.874,95.437,540.811,538.6669999999998,0.0
51957.0,STARLINK-3694,PAYLOAD,2022-08-29 16:00:00,15.08835047,0.0001576999999999,53.2172,51.2758,63.0903,158.7582,-0.0012827,-0.00020641,0.0,0 STARLINK-3694,1 51957U 22025B   22241.66667824 -.00020641  00000-0 -12827-2 0  9991,2 51957  53.2172  51.2758 0001577  63.0903 158.7582 15.08835047 27868,6917.896,95.438,540.851,538.67,0.0
51957.0,STARLINK-3694,PAYLOAD,2022-08-29 22:00:00,15.08803627,0.000162,53.2172,50.1543,57.6534,82.8875,0.0032073,0.00051075,0.0,0 STARLINK-3694,1 51957U 22025B   22241.91667824  .00051075  00000-0  32073-2 0  9997,2 51957  53.2172  50.1543 0001620  57.6534  82.8875 15.08803627  1308,6917.9919999999975,95.44,540.977,538.736,0.0
51957.0,STARLINK-3694,PAYLOAD,2022-08-30 06:00:00,15.08824969,0.0001456,53.2175,48.6563,64.5246,87.5979,0.0013374,0.00021052,0.0,0 STARLINK-3694,1 51957U 22025B   22242.25001157  .00021052  00000-0  13374-2 0  9991,2 51957  53.2175  48.6563 0001456  64.5246  87.5979 15.08824969 27957,6917.926,95.439,540.799,538.784,0.0
51957.0,STARLINK-3694,PAYLOAD,2022-08-30 14:00:01,15.08852796,0.0001516,53.2177,47.1604,66.4541,97.2423,-0.0014640999999999,-0.00023522,0.0,0 STARLINK-3694,1 51957U 22025B   22242.58334491 -.00023522  00000-0 -14641-2 0  9991,2 51957  53.2177  47.1604 0001516  66.4541  97.2423 15.08852796  1307,6917.840999999999,95.437,540.755,538.658,0.0
51957.0,STARLINK-3694,PAYLOAD,2022-08-30 22:00:00,15.08830684,0.0001554999999999,53.2174,45.6652,57.51,117.7923,0.00088137,0.00013763,0.0,0 STARLINK-3694,1 51957U 22025B   22242.91667824  .00013763  00000-0  88137-3 0  9993,2 51957  53.2174  45.6652 0001555  57.5100 117.7923 15.08830684  1300,6917.909000000002,95.438,540.85,538.698,0.0
51957.0,STARLINK-3694,PAYLOAD,2022-08-31 14:00:01,15.08842783,0.0001378,53.2177,42.6717,64.8252,133.6467,-0.0014464,-0.00023235,0.0,0 STARLINK-3694,1 51957U 22025B   22243.58334491 -.00023235  00000-0 -14464-2 0  9996,2 51957  53.2177  42.6717 0001378  64.8252 133.6467 15.08842783 28159,6917.871999999999,95.437,540.69,538.784,0.0
